ONEWEB-0616             
1 55157U 23004T   23229.97287058  .00000057  00000+0  91204-4 0  9997
2 55157  88.1104 209.9215 0010195 228.4098 131.6169 13.32074077 31469
ONEWEB-0617             
1 55158U 23004U   23230.01530503  .00001252  00000+0  34963-2 0  9996
2 55158  87.8893 226.5155 0002174  69.4373 290.6988 13.11406527 30321
ONEWEB-0618             
1 55159U 23004V   23230.42598263  .00000203  00000+0  76315-4 0  9993
2 55159  86.9122 200.8781 0013199 178.3216 181.8023 14.26553269 32036
ONEWEB-0619             
1 55160U 23004W   23229.80689281  .00000086  00000+0  15300-3 0  9991
2 55160  87.9589 211.3719 0010688 246.9462 113.0551 13.31600101 31337
ONEWEB-0620             
1 55161U 23004X   23230.01098764  .00009738  00000+0  27382-1 0  9991
2 55161  87.8900 226.5151 0002894  93.0946 267.0513 13.11492568 30285
ONEWEB-0621             
1 55162U 23004Y   23230.58334491  .00000013  00000+0  00000+0 0  9997
2 55162  87.8485 226.4172 0008450 281.8580 246.6761 13.31007147 30343
ONEWEB-0622             
1 55163U 23004Z   23229.43354238  .00000310  00000+0  83854-3 0  9993
2 55163  87.8716 226.6350 0002330  57.1859 302.9493 13.11419133 30185
ONEWEB-0623             
1 55164U 23004AA  23229.43690695 -.00000913  00000+0 -19551-2 0  9997
2 55164  87.9548 211.5170 0002327 127.6794 232.4557 13.31027352 31280
